NORAD_CAT_ID,OBJECT_NAME,OBJECT_TYPE,EPOCH,MEAN_MOTION,ECCENTRICITY,INCLINATION,RA_OF_ASC_NODE,ARG_OF_PERICENTER,MEAN_ANOMALY,BSTAR,MEAN_MOTION_DOT,MEAN_MOTION_DDOT,TLE_LINE0,TLE_LINE1,TLE_LINE2,SEMIMAJOR_AXIS,PERIOD,APOGEE,PERIGEE,DECAYED
54063.0,STARLINK-5225,PAYLOAD,2024-02-24 08:11:38,15.0883856,0.0001493,53.217,85.5632,93.053,267.0633,0.00011551,1.551e-05,0.0,0 STARLINK-5225,1 54063U 22136N   24055.34141910  .00001551  00000-0  11551-3 0  9999,2 54063  53.2170  85.5632 0001493  93.0530 267.0633 15.08838560 74477,6917.885,95.438,540.783,538.717,0.0
54063.0,STARLINK-5225,PAYLOAD,2024-02-24 19:19:20,15.08843301,0.0001457,53.216,83.4811,92.9595,267.1564,6.9036e-05,8.11e-06,0.0,0 STARLINK-5225,1 54063U 22136N   24055.80509666  .00000811  00000-0  69036-4 0  9996,2 54063  53.2160  83.4811 0001457  92.9595 267.1564 15.08843301 74542,6917.87,95.437,540.743,538.727,0.0
54063.0,STARLINK-5225,PAYLOAD,2024-02-25 11:13:11,15.08850813,0.0001522,53.2151,80.5075,92.4253,267.6914,0.00010949,1.455e-05,0.0,0 STARLINK-5225,1 54063U 22136N   24056.46749159  .00001455  00000-0  10949-3 0  9995,2 54063  53.2151  80.5075 0001522  92.4253 267.6914 15.08850813 75126,6917.847,95.437,540.765,538.659,0.0
54063.0,STARLINK-5225,PAYLOAD,2024-02-25 19:10:07,15.08847403,0.0001627,53.2149,79.0204,81.7563,278.3614,6.923e-05,8.14e-06,0.0,0 STARLINK-5225,1 54063U 22136N   24056.79869351  .00000814  00000-0  69230-4 0  9994,2 54063  53.2149  79.0204 0001627  81.7563 278.3614 15.08847403 74699,6917.858,95.437,540.848,538.597,0.0
54063.0,STARLINK-5225,PAYLOAD,2024-02-26 01:31:40,15.088393,0.0001663,53.2143,77.831,94.6762,265.442,0.00013988,1.939e-05,0.0,0 STARLINK-5225,1 54063U 22136N   24057.06365849  .00001939  00000-0  13988-3 0  9995,2 54063  53.2143  77.8310 0001663  94.6762 265.4420 15.08839300 75219,6917.883,95.438,540.898,538.597,0.0
54063.0,STARLINK-5225,PAYLOAD,2024-02-26 07:53:12,15.0884208,0.000153,53.2149,76.6417,98.7709,261.3457,0.00014753,2.061e-05,0.0,0 STARLINK-5225,1 54063U 22136N   24057.32861714  .00002061  00000-0  14753-3 0  9994,2 54063  53.2149  76.6417 0001530  98.7709 261.3457 15.08842080 74773,6917.874,95.437,540.797,538.681,0.0
54063.0,STARLINK-5225,PAYLOAD,2024-02-27 10:54:45,15.0884427,0.0001563,53.216,71.5868,93.2675,266.8496,6.5408e-05,7.53e-06,0.0,0 STARLINK-5225,1 54063U 22136N   24058.45469720  .00000753  00000-0  65408-4 0  9990,2 54063  53.2160  71.5868 0001563  93.2675 266.8496 15.08844270 75427,6917.867,95.437,540.814,538.651,0.0
54063.0,STARLINK-5225,PAYLOAD,2024-02-27 17:16:18,15.08840256,0.0001559,53.2161,70.3979,93.662,266.4551,2.9675e-05,1.84e-06,0.0,0 STARLINK-5225,1 54063U 22136N   24058.71965934  .00000184  00000-0  29675-4 0  9991,2 54063  53.2161  70.3979 0001559  93.6620 266.4551 15.08840256 74985,6917.88,95.438,540.823,538.666,0.0
54063.0,STARLINK-5225,PAYLOAD,2024-02-28 04:24:00,15.08836582,0.0001461,53.2157,68.3143,94.1134,266.0025,0.00021236,3.093e-05,0.0,0 STARLINK-5225,1 54063U 22136N   24059.18334135  .00003093  00000-0  21236-3 0  9992,2 54063  53.2157  68.3143 0001461  94.1134 266.0025 15.08836582 75539,6917.891,95.438,540.767,538.745,0.0
54063.0,STARLINK-5225,PAYLOAD,2024-02-28 10:45:32,15.0884539,0.0001526,53.2169,67.1247,91.7812,268.3355,0.00011386,1.525e-05,0.0,0 STARLINK-5225,1 54063U 22136N   24059.44829552  .00001525  00000-0  11386-3 0  9996,2 54063  53.2169  67.1247 0001526  91.7812 268.3355 15.08845390 75574,6917.864,95.437,540.785,538.673,0.0
54063.0,STARLINK-5225,PAYLOAD,2024-02-29 04:14:48,15.08835046,0.0001526,53.2173,63.852,96.949,263.1675,3.3892e-05,2.51e-06,0.0,0 STARLINK-5225,1 54063U 22136N   24060.17694510  .00000251  00000-0  33892-4 0  9994,2 54063  53.2173  63.8520 0001526  96.9490 263.1675 15.08835046 75682,6917.896,95.438,540.816,538.705,0.0
54063.0,STARLINK-5225,PAYLOAD,2024-02-29 05:50:11,15.08835206,0.0001551,53.2183,63.5547,94.7404,265.3765,4.28e-05,3.93e-06,0.0,0 STARLINK-5225,1 54063U 22136N   24060.24318535  .00000393  00000-0  42800-4 0  9998,2 54063  53.2183  63.5547 0001551  94.7404 265.3765 15.08835206 75219,6917.895,95.438,540.833,538.687,0.0
54063.0,STARLINK-5225,PAYLOAD,2024-02-29 16:57:53,15.08839479,0.0001533,53.2182,61.4723,88.4945,271.6223,-6.1312e-06,-3.86e-06,0.0,0 STARLINK-5225,1 54063U 22136N   24060.70686447 -.00000386  00000-0 -61312-5 0  9993,2 54063  53.2182  61.4723 0001533  88.4945 271.6223 15.08839479 75283,6917.882,95.438,540.807,538.686,0.0
54063.0,STARLINK-5225,PAYLOAD,2024-03-01 08:51:44,15.08842481,0.0001521,53.2177,58.4983,88.2315,271.8852,5.3015e-05,5.56e-06,0.0,0 STARLINK-5225,1 54063U 22136N   24061.36926290  .00000556  00000-0  53015-4 0  9996,2 54063  53.2177  58.4983 0001521  88.2315 271.8852 15.08842481 75385,6917.873,95.437,540.79,538.686,0.0
54063.0,STARLINK-5225,PAYLOAD,2024-03-01 16:48:39,15.08842135,0.000155,53.2179,57.0131,88.7652,271.3518,0.00010136,1.326e-05,0.0,0 STARLINK-5225,1 54063U 22136N   24061.70046190  .00001326  00000-0  10136-3 0  9998,2 54063  53.2179  57.0131 0001550  88.7652 271.3518 15.08842135 75434,6917.874,95.437,540.811,538.667,0.0
54063.0,STARLINK-5225,PAYLOAD,2024-03-02 07:07:07,15.08845357,0.0001545,53.2179,54.337,88.8511,271.2658,0.00013959,1.935e-05,0.0,0 STARLINK-5225,1 54063U 22136N   24062.29661945  .00001935  00000-0  13959-3 0  9996,2 54063  53.2179  54.3370 0001545  88.8511 271.2658 15.08845357 75521,6917.864,95.437,540.798,538.66,0.0
54063.0,STARLINK-5225,PAYLOAD,2024-03-02 16:39:27,15.08840559,0.0001498,53.2178,52.5514,88.1933,271.923,8.7741e-05,1.109e-05,0.0,0 STARLINK-5225,1 54063U 22136N   24062.69406343  .00001109  00000-0  87741-4 0  9993,2 54063  53.2178  52.5514 0001498  88.1933 271.9230 15.08840559 76060,6917.879,95.438,540.78,538.707,0.0
54063.0,STARLINK-5225,PAYLOAD,2024-03-03 05:22:32,15.08841231,0.0001472,53.2176,50.1725,92.1019,268.0141,2.5738e-05,1.22e-06,0.0,0 STARLINK-5225,1 54063U 22136N   24063.22398521  .00000122  00000-0  25738-4 0  9993,2 54063  53.2176  50.1725 0001472  92.1019 268.0141 15.08841231 75669,6917.877,95.437,540.76,538.723,0.0
54063.0,STARLINK-5225,PAYLOAD,2024-03-04 03:37:55,15.08851815,0.000148,53.2176,46.0112,88.9461,271.17,0.00012485,1.7e-05,0.0,0 STARLINK-5225,1 54063U 22136N   24064.15133480  .00001700  00000-0  12485-3 0  9994,2 54063  53.2176  46.0112 0001480  88.9461 271.1700 15.08851815 76280,6917.844,95.437,540.733,538.685,0.0
54063.0,STARLINK-5225,PAYLOAD,2024-03-05 03:28:43,15.08834761,0.0001426,53.2171,41.549,126.8437,233.2686,2.0146e-05,3.3e-07,0.0,0 STARLINK-5225,1 54063U 22136N   24065.14494489  .00000033  00000-0  20146-4 0  9995,2 54063  53.2171  41.5490 0001426 126.8437 233.2686 15.08834761 76439,6917.896,95.438,540.748,538.775,0.0
54063.0,STARLINK-5225,PAYLOAD,2024-03-05 08:14:53,15.08828415,0.0001116,53.2186,40.6605,61.8217,298.2887,-7.0323e-05,-1.406e-05,0.0,0 STARLINK-5225,1 54063U 22136N   24065.34367621 -.00001406  00000-0 -70323-4 0  9993,2 54063  53.2186  40.6605 0001116  61.8217 298.2887 15.08828415 75985,6917.916,95.438,540.553,539.009,0.0
54063.0,STARLINK-5225,PAYLOAD,2024-03-06 04:54:54,15.08837726,0.0001137,53.2182,36.7955,91.667,268.4452,0.0001775,2.538e-05,0.0,0 STARLINK-5225,1 54063U 22136N   24066.20479223  .00002538  00000-0  17750-3 0  9990,2 54063  53.2182  36.7955 0001137  91.6670 268.4452 15.08837726 76592,6917.887,95.438,540.539,538.966,0.0
54063.0,STARLINK-5225,PAYLOAD,2024-03-06 08:05:40,15.08843023,0.000125,53.2183,36.1998,93.3503,266.7632,0.00012737,1.74e-05,0.0,0 STARLINK-5225,1 54063U 22136N   24066.33726865  .00001740  00000-0  12737-3 0  9995,2 54063  53.2183  36.1998 0001250  93.3503 266.7632 15.08843023 76132,6917.871,95.437,540.601,538.871,0.0
54063.0,STARLINK-5225,PAYLOAD,2024-03-07 03:10:18,15.08828911,9.53e-05,53.2181,32.632,97.8837,262.2264,0.00022926,3.362e-05,0.0,0 STARLINK-5225,1 54063U 22136N   24067.13215900  .00003362  00000-0  22926-3 0  9990,2 54063  53.2181  32.6320 0000953  97.8837 262.2264 15.08828911 76735,6917.914,95.438,540.439,539.12,0.0
54063.0,STARLINK-5225,PAYLOAD,2024-03-07 04:45:42,15.08817576,0.0001034,53.2178,32.3333,72.5529,287.5576,4.2598e-05,3.9e-06,0.0,0 STARLINK-5225,1 54063U 22136N   24067.19840595  .00000390  00000-0  42598-4 0  9996,2 54063  53.2178  32.3333 0001034  72.5529 287.5576 15.08817576 76260,6917.949,95.439,540.529,539.099,0.0
54063.0,STARLINK-5225,PAYLOAD,2024-03-08 04:36:28,15.08849946,0.0001036,53.2186,27.8747,77.2946,282.8162,0.00022359,3.273e-05,0.0,0 STARLINK-5225,1 54063U 22136N   24068.19199584  .00003273  00000-0  22359-3 0  9997,2 54063  53.2186  27.8747 0001036  77.2946 282.8162 15.08849946 76898,6917.85,95.437,540.432,538.998,0.0
54063.0,STARLINK-5225,PAYLOAD,2024-03-08 14:08:46,15.08857678,0.0001107,53.2177,26.0902,83.6915,276.4203,0.00045839,7.018e-05,0.0,0 STARLINK-5225,1 54063U 22136N   24068.58943229  .00007018  00000-0  45839-3 0  9992,2 54063  53.2177  26.0902 0001107  83.6915 276.4203 15.08857678 76478,6917.826,95.436,540.457,538.926,0.0
54063.0,STARLINK-5225,PAYLOAD,2024-03-09 04:27:15,15.08848138,0.000117,53.2176,23.413,81.9329,278.1796,0.00029275,4.375e-05,0.0,0 STARLINK-5225,1 54063U 22136N   24069.18559718  .00004375  00000-0  29275-3 0  9994,2 54063  53.2176  23.4130 0001170  81.9329 278.1796 15.08848138 77042,6917.856,95.437,540.53,538.911,0.0
54063.0,STARLINK-5225,PAYLOAD,2024-03-09 13:59:33,15.08863515,0.0001162,53.2182,21.628,73.0502,287.0618,0.00055804,8.61e-05,0.0,0 STARLINK-5225,1 54063U 22136N   24069.58302862  .00008610  00000-0  55804-3 0  9997,2 54063  53.2182  21.6280 0001162  73.0502 287.0618 15.08863515 76622,6917.809,95.436,540.477,538.87,0.0
54063.0,STARLINK-5225,PAYLOAD,2024-03-10 04:18:02,15.08844358,0.0001102,53.2173,18.9524,82.1061,278.0056,5.2631e-05,5.5e-06,0.0,0 STARLINK-5225,1 54063U 22136N   24070.17919218  .00000550  00000-0  52631-4 0  9994,2 54063  53.2173  18.9524 0001102  82.1061 278.0056 15.08844358 77190,6917.867,95.437,540.494,538.97,0.0
